[
    {
        "Altitude(m)": 612502.2249597764,
        "Argument of Periapsis(deg)": 0.0,
        "Eccentricity": 0.0,
        "Inclination(deg)": 60.0,
        "Latitude(deg)": -28.136071350234996,
        "Longitude(deg)": -2.8516971818487677,
        "Mean Anomaly(deg)": -32.727299999999985,
        "RAAN(deg)": 114.99999999999999,
        "Satellite Name": "Test1 526",
        "Satellite Number": 526,
        "Semi-Major Axis(m)": 6980739.136638005,
        "Time(s)": 0
    },
    {
        "Altitude(m)": 612308.672289171,
        "Argument of Periapsis(deg)": 0.00010418945913296404,
        "Eccentricity": 0.0,
        "Inclination(deg)": 60.0,
        "Latitude(deg)": -27.623126039821805,
        "Longitude(deg)": -2.4982238644864596,
        "Mean Anomaly(deg)": -32.10719385453813,
        "RAAN(deg)": 114.99957995086024,
        "Satellite Name": "Test1 526",
        "Satellite Number": 526,
        "Semi-Major Axis(m)": 6980739.136638005,
        "Time(s)": 10
    }
]